{"type": "FeatureCollection", "features": [ {"type": "Feature", "properties": {"norad_id": 66698, "name": "IRIDE FM4", "group": "last-30-days", "lat": 14.877788292099044, "lon": -105.23503368134725, "alt_km": 513.9836408353985, "timestamp": "2025-12-27T06:41:29.618514+00:00", "meta": {"OBJECT_NAME": "IRIDE FM4", "OBJECT_ID": "2025-276AJ", "EPOCH": "2025-12-26T22:00:01.999584", "MEAN_MOTION": 15.17405202, "ECCENTRICITY": 0.00027889, "INCLINATION": 97.4384, "RA_OF_ASC_NODE": 72.4203, "ARG_OF_PERICENTER": 234.56, "MEAN_ANOMALY": 113.4509, "EPHEMERIS_TYPE": 0, "CLASSIFICATION_TYPE": "U", "NORAD_CAT_ID": 66698, "ELEMENT_SET_NO": 999, "REV_AT_EPOCH": 130, "BSTAR": -0.0011483163, "MEAN_MOTION_DOT": -0.00022931, "MEAN_MOTION_DDOT": 0}, "tle": {"line1": "1 66698U 25276AJ  25360.91668981 -.00022931  00000+0 -11483-2 0  9998", "line2": "2 66698  97.4384  72.4203 0002788 234.5600 113.4509 15.17405202  1309"}}, "geometry": {"type": "Point", "coordinates": [-105.23503368134725, 14.877788292099044]}}, {"type": "Feature", "properties": {"norad_id": 66699, "name": "IRIDE FM5", "group": "last-30-days", "lat": 13.002638054845374, "lon": -105.48960385362501, "alt_km": 514.0188002788682, "timestamp": "2025-12-27T06:41:29.618524+00:00", "meta": {"OBJECT_NAME": "IRIDE FM5", "OBJECT_ID": "2025-276AK", "EPOCH": "2025-12-26T22:02:44.117952", "MEAN_MOTION": 15.17438891, "ECCENTRICITY": 0.00032042, "INCLINATION": 97.4398, "RA_OF_ASC_NODE": 72.4274, "ARG_OF_PERICENTER": 236.9487, "MEAN_ANOMALY": 123.1439, "EPHEMERIS_TYPE": 0, "CLASSIFICATION_TYPE": "U", "NORAD_CAT_ID": 66699, "ELEMENT_SET_NO": 999, "REV_AT_EPOCH": 427, "BSTAR": 0.00027475853, "MEAN_MOTION_DOT": 5.432e-05, "MEAN_MOTION_DDOT": 0}, "tle": {"line1": "1 66699U 25276AK  25360.91856618  .00005432  00000+0  27476-3 0  9990", "line2": "2 66699  97.4398  72.4274 0003204 236.9487 123.1439 15.17438891  4275"}}, "geometry": {"type": "Point", "coordinates": [-105.48960385362501, 13.002638054845374]}}, {"type": "Feature", "properties": {"norad_id": 66700, "name": "IRIDE FM6", "group": "last-30-days", "lat": -70.51213196619847, "lon": -128.8495670401608, "alt_km": 518.4263099458713, "timestamp": "2025-12-27T06:41:29.618537+00:00", "meta": {"OBJECT_NAME": "IRIDE FM6", "OBJECT_ID": "2025-276AL", "EPOCH": "2025-12-26T21:40:37.405344", "MEAN_MOTION": 15.18316621, "ECCENTRICITY": 0.00022155, "INCLINATION": 97.4409, "RA_OF_ASC_NODE": 72.4545, "ARG_OF_PERICENTER": 153.2505, "MEAN_ANOMALY": 206.8844, "EPHEMERIS_TYPE": 0, "CLASSIFICATION_TYPE": "U", "NORAD_CAT_ID": 66700, "ELEMENT_SET_NO": 999, "REV_AT_EPOCH": 427, "BSTAR": 0.0014795329, "MEAN_MOTION_DOT": 0.00030393, "MEAN_MOTION_DDOT": 0}, "tle": {"line1": "1 66700U 25276AL  25360.90321071  .00030393  00000+0  14795-2 0  9995", "line2": "2 66700  97.4409  72.4545 0002215 153.2505 206.8844 15.18316621  4271"}}, "geometry": {"type": "Point", "coordinates": [-128.8495670401608, -70.51213196619847]}}, {"type": "Feature", "properties": {"norad_id": 66701, "name": "IRIDE FM7", "group": "last-30-days", "lat": 13.069582218260328, "lon": -105.47331187856501, "alt_km": 513.9730725319159, "timestamp": "2025-12-27T06:41:29.618548+00:00", "meta": {"OBJECT_NAME": "IRIDE FM7", "OBJECT_ID": "2025-276AM", "EPOCH": "2025-12-26T22:02:45.286944", "MEAN_MOTION": 15.17442554, "ECCENTRICITY": 0.00031563, "INCLINATION": 97.4415, "RA_OF_ASC_NODE": 72.434, "ARG_OF_PERICENTER": 235.8329, "MEAN_ANOMALY": 124.2606, "EPHEMERIS_TYPE": 0, "CLASSIFICATION_TYPE": "U", "NORAD_CAT_ID": 66701, "ELEMENT_SET_NO": 999, "REV_AT_EPOCH": 427, "BSTAR": 0.00025982398, "MEAN_MOTION_DOT": 5.133e-05, "MEAN_MOTION_DDOT": 0}, "tle": {"line1": "1 66701U 25276AM  25360.91857971  .00005133  00000+0  25982-3 0  9995", "line2": "2 66701  97.4415  72.4340 0003156 235.8329 124.2606 15.17442554  4271"}}, "geometry": {"type": "Point", "coordinates": [-105.47331187856501, 13.069582218260328]}}, {"type": "Feature", "properties": {"norad_id": 66702, "name": "IRIDE FM8", "group": "last-30-days", "lat": 12.04451264439078, "lon": -105.62302372790693, "alt_km": 514.374991226714, "timestamp": "2025-12-27T06:41:29.618560+00:00", "meta": {"OBJECT_NAME": "IRIDE FM8", "OBJECT_ID": "2025-276AN", "EPOCH": "2025-12-26T22:02:29.200992", "MEAN_MOTION": 15.17452418, "ECCENTRICITY": 0.0002891, "INCLINATION": 97.4392, "RA_OF_ASC_NODE": 72.4254, "ARG_OF_PERICENTER": 243.5539, "MEAN_ANOMALY": 116.5399, "EPHEMERIS_TYPE": 0, "CLASSIFICATION_TYPE": "U", "NORAD_CAT_ID": 66702, "ELEMENT_SET_NO": 999, "REV_AT_EPOCH": 427, "BSTAR": 0.00053931694, "MEAN_MOTION_DOT": 0.00010737, "MEAN_MOTION_DDOT": 0}, "tle": {"line1": "1 66702U 25276AN  25360.91839353  .00010737  00000+0  53932-3 0  9992", "line2": "2 66702  97.4392  72.4254 0002891 243.5539 116.5399 15.17452418  4277"}}, "geometry": {"type": "Point", "coordinates": [-105.62302372790693, 12.04451264439078]}}, {"type": "Feature", "properties": {"norad_id": 66703, "name": "PELICAN-6", "group": "last-30-days", "lat": 6.24841244401778, "lon": -106.3959340725593, "alt_km": 515.3555554065142, "timestamp": "2025-12-27T06:41:29.618573+00:00", "meta": {"OBJECT_NAME": "PELICAN-6", "OBJECT_ID": "2025-276AP", "EPOCH": "2025-12-26T22:00:55.581408", "MEAN_MOTION": 15.17363184, "ECCENTRICITY": 0.00012169, "INCLINATION": 97.4401, "RA_OF_ASC_NODE": 72.4292, "ARG_OF_PERICENTER": 210.744, "MEAN_ANOMALY": 149.3722, "EPHEMERIS_TYPE": 0, "CLASSIFICATION_TYPE": "U", "NORAD_CAT_ID": 66703, "ELEMENT_SET_NO": 999, "REV_AT_EPOCH": 427, "BSTAR": 0.00028531925, "MEAN_MOTION_DOT": 5.63e-05, "MEAN_MOTION_DDOT": 0}, "tle": {"line1": "1 66703U 25276AP  25360.91730997  .00005630  00000+0  28532-3 0  9991", "line2": "2 66703  97.4401  72.4292 0001216 210.7440 149.3722 15.17363184  4273"}}, "geometry": {"type": "Point", "coordinates": [-106.3959340725593, 6.24841244401778]}}, {"type": "Feature", "properties": {"norad_id": 66704, "name": "FLOCK 4H-1", "group": "last-30-days", "lat": -60.87595279704654, "lon": -120.75722132948353, "alt_km": 518.4831924319196, "timestamp": "2025-12-27T06:41:29.618585+00:00", "meta": {"OBJECT_NAME": "FLOCK 4H-1", "OBJECT_ID": "2025-276AQ", "EPOCH": "2025-12-26T22:00:01.999584", "MEAN_MOTION": 15.18158542, "ECCENTRICITY": 0.0002318, "INCLINATION": 97.4373, "RA_OF_ASC_NODE": 72.4469, "ARG_OF_PERICENTER": 159.1506, "MEAN_ANOMALY": 264.6464, "EPHEMERIS_TYPE": 0, "CLASSIFICATION_TYPE": "U", "NORAD_CAT_ID": 66704, "ELEMENT_SET_NO": 999, "REV_AT_EPOCH": 243, "BSTAR": -0.001289369, "MEAN_MOTION_DOT": -0.00026287, "MEAN_MOTION_DDOT": 0}, "tle": {"line1": "1 66704U 25276AQ  25360.91668981 -.00026287  00000+0 -12894-2 0  9991", "line2": "2 66704  97.4373  72.4469 0002318 159.1506 264.6464 15.18158542  2432"}}, "geometry": {"type": "Point", "coordinates": [-120.75722132948353, -60.87595279704654]}}, {"type": "Feature", "properties": {"norad_id": 66705, "name": "FLOCK 4H-2", "group": "last-30-days", "lat": -64.14027809569242, "lon": -122.83068910974038, "alt_km": 518.5888428580083, "timestamp": "2025-12-27T06:41:29.618595+00:00", "meta": {"OBJECT_NAME": "FLOCK 4H-2", "OBJECT_ID": "2025-276AR", "EPOCH": "2025-12-26T21:42:22.403808", "MEAN_MOTION": 15.18210571, "ECCENTRICITY": 0.00020135, "INCLINATION": 97.4369, "RA_OF_ASC_NODE": 72.4352, "ARG_OF_PERICENTER": 150.6229, "MEAN_ANOMALY": 209.5118, "EPHEMERIS_TYPE": 0, "CLASSIFICATION_TYPE": "U", "NORAD_CAT_ID": 66705, "ELEMENT_SET_NO": 999, "REV_AT_EPOCH": 427, "BSTAR": 0.00077873621, "MEAN_MOTION_DOT": 0.00015885, "MEAN_MOTION_DDOT": 0}, "tle": {"line1": "1 66705U 25276AR  25360.90442597  .00015885  00000+0  77874-3 0  9994", "line2": "2 66705  97.4369  72.4352 0002013 150.6229 209.5118 15.18210571  4278"}}, "geometry": {"type": "Point", "coordinates": [-122.83068910974038, -64.14027809569242]}}, {"type": "Feature", "properties": {"norad_id": 66706, "name": "FLOCK 4H-3", "group": "last-30-days", "lat": -0.05997455424758124, "lon": -107.204920082647, "alt_km": 514.9270736414855, "timestamp": "2025-12-27T06:41:29.618605+00:00", "meta": {"OBJECT_NAME": "FLOCK 4H-3", "OBJECT_ID": "2025-276AS", "EPOCH": "2025-12-26T21:59:17.716128", "MEAN_MOTION": 15.17526098, "ECCENTRICITY": 0.00030867, "INCLINATION": 97.4438, "RA_OF_ASC_NODE": 72.4465, "ARG_OF_PERICENTER": 227.3976, "MEAN_ANOMALY": 132.6997, "EPHEMERIS_TYPE": 0, "CLASSIFICATION_TYPE": "U", "NORAD_CAT_ID": 66706, "ELEMENT_SET_NO": 999, "REV_AT_EPOCH": 427, "BSTAR": 0.00031922844, "MEAN_MOTION_DOT": 6.338e-05, "MEAN_MOTION_DDOT": 0}, "tle": {"line1": "1 66706U 25276AS  25360.91617727  .00006338  00000+0  31923-3 0  9993", "line2": "2 66706  97.4438  72.4465 0003086 227.3976 132.6997 15.17526098  4277"}}, "geometry": {"type": "Point", "coordinates": [-107.204920082647, -0.05997455424758124]}}, {"type": "Feature", "properties": {"norad_id": 66707, "name": "FLOCK 4H-4", "group": "last-30-days", "lat": 25.434314307191777, "lon": -103.65038510632525, "alt_km": 512.8315381626999, "timestamp": "2025-12-27T06:41:29.618616+00:00", "meta": {"OBJECT_NAME": "FLOCK 4H-4", "OBJECT_ID": "2025-276AT", "EPOCH": "2025-12-26T20:31:00.797376", "MEAN_MOTION": 15.1726183, "ECCENTRICITY": 0.00036709, "INCLINATION": 97.4422, "RA_OF_ASC_NODE": 72.3691, "ARG_OF_PERICENTER": 233.2864, "MEAN_ANOMALY": 126.8033, "EPHEMERIS_TYPE": 0, "CLASSIFICATION_TYPE": "U", "NORAD_CAT_ID": 66707, "ELEMENT_SET_NO": 999, "REV_AT_EPOCH": 426, "BSTAR": 0.00056708126, "MEAN_MOTION_DOT": 0.00011233, "MEAN_MOTION_DDOT": 0}, "tle": {"line1": "1 66707U 25276AT  25360.85487034  .00011233  00000+0  56708-3 0  9991", "line2": "2 66707  97.4422  72.3691 0003670 233.2864 126.8033 15.17261830  4267"}}, "geometry": {"type": "Point", "coordinates": [-103.65038510632525, 25.434314307191777]}}]}